ORBCOMM-X [-]           
1 21576U 91050C   23278.44657121  .00000773  00000+0  24795-3 0  9994
2 21576  98.4243 344.4118 0002542 254.4730 105.6179 14.42195903692617
ORBCOMM FM02 [-]        
1 23546U 95017B   23278.44041616  .00009560  00000+0  13888-2 0  9999
2 23546  69.9702 183.0500 0007417 194.7768 165.3164 14.76190767520150
ORBCOMM FM11 [+]        
1 25114U 97084C   23278.56002331  .00003263  00000+0  10462-2 0  9991
2 25114  45.0135  97.3603 0005192 326.7413  33.3109 14.41148089351822
ORBCOMM FM12 [-]        
1 25115U 97084D   23278.51614791  .00003091  00000+0  99348-3 0  9996
2 25115  45.0144  97.2102 0004188 327.6898  32.3695 14.41137642351616
ORBCOMM FM09 [-]        
1 25116U 97084E   23278.52286728  .00003109  00000+0  99935-3 0  9995
2 25116  45.0146  97.8085 0005420 309.3862  50.6507 14.41119791351826
